NORAD_CAT_ID,OBJECT_NAME,OBJECT_TYPE,EPOCH,MEAN_MOTION,ECCENTRICITY,INCLINATION,RA_OF_ASC_NODE,ARG_OF_PERICENTER,MEAN_ANOMALY,BSTAR,MEAN_MOTION_DOT,MEAN_MOTION_DDOT,TLE_LINE0,TLE_LINE1,TLE_LINE2,SEMIMAJOR_AXIS,PERIOD,APOGEE,PERIGEE,DECAYED
52996.0,STARLINK-4295,PAYLOAD,2024-04-10 03:05:41,15.08834369,0.0001376,53.2179,350.0827,84.4731,275.6418,1.5473e-06,-2.63e-06,0.0,0 STARLINK-4295,1 52996U 22076L   24101.12895649 -.00000263  00000-0  15473-5 0  9997,2 52996  53.2179 350.0827 0001376  84.4731 275.6418 15.08834369 97858,6917.898,95.438,540.715,538.811,0.0
52996.0,STARLINK-4295,PAYLOAD,2024-04-10 09:27:14,15.0883517,0.0001384,53.2189,348.8934,85.8675,274.2475,7.4854e-05,9.03e-06,0.0,0 STARLINK-4295,1 52996U 22076L   24101.39391979  .00000903  00000-0  74854-4 0  9990,2 52996  53.2189 348.8934 0001384  85.8675 274.2475 15.08835170 97426,6917.895,95.438,540.718,538.803,0.0
52996.0,STARLINK-4295,PAYLOAD,2024-04-10 22:10:19,15.08840667,0.0001465,53.2187,346.515,88.0475,272.0685,6.6542e-05,7.71e-06,0.0,0 STARLINK-4295,1 52996U 22076L   24101.92383711  .00000771  00000-0  66542-4 0  9992,2 52996  53.2187 346.5150 0001465  88.0475 272.0685 15.08840667 97507,6917.878,95.438,540.757,538.73,0.0
52996.0,STARLINK-4295,PAYLOAD,2024-04-10 23:45:42,15.08842213,0.0001454,53.2188,346.2175,86.4439,273.672,7.5135e-05,9.08e-06,0.0,0 STARLINK-4295,1 52996U 22076L   24101.99007585  .00000908  00000-0  75135-4 0  9991,2 52996  53.2188 346.2175 0001454  86.4439 273.6720 15.08842213 97980,6917.874,95.437,540.744,538.733,0.0
52996.0,STARLINK-4295,PAYLOAD,2024-04-11 22:01:06,15.08842952,0.0001393,53.2179,342.0535,84.6112,275.5039,0.00015084,2.114e-05,0.0,0 STARLINK-4295,1 52996U 22076L   24102.91743377  .00002114  00000-0  15084-3 0  9997,2 52996  53.2179 342.0535 0001393  84.6112 275.5039 15.08842952 97652,6917.871,95.437,540.7,538.773,0.0
52996.0,STARLINK-4295,PAYLOAD,2024-04-12 01:11:52,15.08847059,0.0001433,53.2184,341.4587,85.078,275.0376,0.00019092,2.752e-05,0.0,0 STARLINK-4295,1 52996U 22076L   24103.04991039  .00002752  00000-0  19092-3 0  9993,2 52996  53.2184 341.4587 0001433  85.0780 275.0376 15.08847059 98146,6917.859,95.437,540.715,538.732,0.0
52996.0,STARLINK-4295,PAYLOAD,2024-04-12 21:51:53,15.08842275,0.0001371,53.2202,337.5833,88.7014,271.4136,3.9817e-05,3.46e-06,0.0,0 STARLINK-4295,1 52996U 22076L   24103.91103646  .00000346  00000-0  39817-4 0  9993,2 52996  53.2202 337.5833 0001371  88.7014 271.4136 15.08842275 97809,6917.873,95.437,540.687,538.79,0.0
52996.0,STARLINK-4295,PAYLOAD,2024-04-13 01:02:39,15.08842975,0.0001291,53.2199,336.9895,98.3338,261.7801,2.5334e-05,1.15e-06,0.0,0 STARLINK-4295,1 52996U 22076L   24104.04351528  .00000115  00000-0  25334-4 0  9995,2 52996  53.2199 336.9895 0001291  98.3338 261.7801 15.08842975 98294,6917.871,95.437,540.629,538.843,0.0
52996.0,STARLINK-4295,PAYLOAD,2024-04-13 21:42:40,15.08854213,0.0001321,53.2197,333.1244,102.7298,257.3842,-4.6995e-05,-1.036e-05,0.0,0 STARLINK-4295,1 52996U 22076L   24104.90463017 -.00001036  00000-0 -46995-4 0  9998,2 52996  53.2197 333.1244 0001321 102.7298 257.3842 15.08854213 97954,6917.837,95.437,540.616,538.788,0.0
52996.0,STARLINK-4295,PAYLOAD,2024-04-14 19:58:04,15.08839105,0.0001433,53.2187,328.9656,91.0627,269.0529,7.112e-05,8.44e-06,0.0,0 STARLINK-4295,1 52996U 22076L   24105.83199921  .00000844  00000-0  71120-4 0  9993,2 52996  53.2187 328.9656 0001433  91.0627 269.0529 15.08839105 98565,6917.883,95.438,540.739,538.757,0.0
52996.0,STARLINK-4295,PAYLOAD,2024-04-14 21:33:27,15.08840556,0.0001474,53.2184,328.6691,91.2121,268.904,7.9245e-05,9.73e-06,0.0,0 STARLINK-4295,1 52996U 22076L   24105.89823813  .00000973  00000-0  79245-4 0  9992,2 52996  53.2184 328.6691 0001474  91.2121 268.9040 15.08840556 98102,6917.879,95.438,540.763,538.724,0.0
52996.0,STARLINK-4295,PAYLOAD,2024-04-15 15:02:42,15.088401,0.0001522,53.2185,325.399,98.5389,261.5775,8.8806e-05,1.126e-05,0.0,0 STARLINK-4295,1 52996U 22076L   24106.62687843  .00001126  00000-0  88806-4 0  9999,2 52996  53.2185 325.3990 0001522  98.5389 261.5775 15.08840100 98210,6917.88,95.438,540.798,538.692,0.0
52996.0,STARLINK-4295,PAYLOAD,2024-04-15 21:24:14,15.08847709,0.0001435,53.2169,324.2116,83.2786,276.8369,0.00010944,1.455e-05,0.0,0 STARLINK-4295,1 52996U 22076L   24106.89183397  .00001455  00000-0  10944-3 0  9995,2 52996  53.2169 324.2116 0001435  83.2786 276.8369 15.08847709 98721,6917.857,95.437,540.715,538.729,0.0
52996.0,STARLINK-4295,PAYLOAD,2024-04-16 06:56:33,15.08846836,0.0001233,53.2175,322.4269,87.3274,272.786,4.5383e-05,4.35e-06,0.0,0 STARLINK-4295,1 52996U 22076L   24107.28927422  .00000435  00000-0  45383-4 0  9997,2 52996  53.2175 322.4269 0001233  87.3274 272.7860 15.08846836 98316,6917.859,95.437,540.577,538.872,0.0
52996.0,STARLINK-4295,PAYLOAD,2024-04-16 19:39:38,15.08847307,0.0001261,53.2159,320.0499,85.296,274.8176,0.00010137,1.326e-05,0.0,0 STARLINK-4295,1 52996U 22076L   24107.81919439  .00001326  00000-0  10137-3 0  9993,2 52996  53.2159 320.0499 0001261  85.2960 274.8176 15.08847307 98864,6917.858,95.437,540.595,538.851,0.0
52996.0,STARLINK-4295,PAYLOAD,2024-04-16 21:15:00,15.08860675,0.0001248,53.2161,319.7503,89.793,270.3205,0.00032408,4.876e-05,0.0,0 STARLINK-4295,1 52996U 22076L   24107.88542675  .00004876  00000-0  32408-3 0  9992,2 52996  53.2161 319.7503 0001248  89.7930 270.3205 15.08860675 98406,6917.817,95.436,540.546,538.819,0.0
52996.0,STARLINK-4295,PAYLOAD,2024-04-17 19:30:25,15.0883631,0.000121,53.2153,315.5886,87.9924,272.1207,-6.5442e-05,-1.329e-05,0.0,0 STARLINK-4295,1 52996U 22076L   24108.81280000 -.00001329  00000-0 -65442-4 0  9994,2 52996  53.2153 315.5886 0001210  87.9924 272.1207 15.08836310 99016,6917.892,95.438,540.594,538.92,0.0
52996.0,STARLINK-4295,PAYLOAD,2024-04-17 22:41:12,15.08835833,0.0001299,53.2166,314.9945,85.2148,274.8993,-6.9593e-05,-1.395e-05,0.0,0 STARLINK-4295,1 52996U 22076L   24108.94528087 -.00001395  00000-0 -69593-4 0  9992,2 52996  53.2166 314.9945 0001299  85.2148 274.8993 15.08835833 98564,6917.893,95.438,540.657,538.859,0.0
52996.0,STARLINK-4295,PAYLOAD,2024-04-18 20:56:35,15.08855913,0.00012,53.2164,310.8294,101.3209,258.7918,0.00014509,2.023e-05,0.0,0 STARLINK-4295,1 52996U 22076L   24109.87263071  .00002023  00000-0  14509-3 0  9997,2 52996  53.2164 310.8294 0001200 101.3209 258.7918 15.08855913 99171,6917.832,95.437,540.527,538.867,0.0
52996.0,STARLINK-4295,PAYLOAD,2024-04-18 22:31:58,15.08854246,0.000134,53.217,310.5326,104.7429,255.3711,0.00019187,2.768e-05,0.0,0 STARLINK-4295,1 52996U 22076L   24109.93887183  .00002768  00000-0  19187-3 0  9993,2 52996  53.2170 310.5326 0001340 104.7429 255.3711 15.08854246 98718,6917.837,95.437,540.629,538.775,0.0
52996.0,STARLINK-4295,PAYLOAD,2024-04-19 12:50:27,15.08837098,0.0001312,53.2166,307.8566,93.2418,266.8724,0.00012544,1.709e-05,0.0,0 STARLINK-4295,1 52996U 22076L   24110.53504491  .00001709  00000-0  12544-3 0  9993,2 52996  53.2166 307.8566 0001312  93.2418 266.8724 15.08837098 99276,6917.889,95.438,540.662,538.847,0.0
52996.0,STARLINK-4295,PAYLOAD,2024-04-19 20:47:22,15.08854102,0.0001383,53.2169,306.3672,76.7985,283.3162,0.00036972,5.603e-05,0.0,0 STARLINK-4295,1 52996U 22076L   24110.86623769  .00005603  00000-0  36972-3 0  9997,2 52996  53.2169 306.3672 0001383  76.7985 283.3162 15.08854102 99325,6917.837,95.437,540.659,538.746,0.0
52996.0,STARLINK-4295,PAYLOAD,2024-04-20 12:41:14,15.08841225,0.0001213,53.2182,303.3982,93.6672,266.4459,7.2351e-05,8.64e-06,0.0,0 STARLINK-4295,1 52996U 22076L   24111.52864334  .00000864  00000-0  72351-4 0  9992,2 52996  53.2182 303.3982 0001213  93.6672 266.4459 15.08841225 99428,6917.877,95.437,540.581,538.903,0.0
52996.0,STARLINK-4295,PAYLOAD,2024-04-20 19:02:47,15.0884579,0.0001433,53.2183,302.2086,94.6738,265.4418,-1.338e-05,-5.01e-06,0.0,0 STARLINK-4295,1 52996U 22076L   24111.79360236 -.00000501  00000-0 -13380-4 0  9990,2 52996  53.2183 302.2086 0001433  94.6738 265.4418 15.08845790 98996,6917.863,95.437,540.719,538.736,0.0
52996.0,STARLINK-4295,PAYLOAD,2024-04-21 18:53:34,15.08846869,0.0001527,53.218,297.7482,74.8653,285.2508,0.00012831,1.755e-05,0.0,0 STARLINK-4295,1 52996U 22076L   24112.78720187  .00001755  00000-0  12831-3 0  9994,2 52996  53.2180 297.7482 0001527  74.8653 285.2508 15.08846869 99619,6917.859,95.437,540.781,538.668,0.0
52996.0,STARLINK-4295,PAYLOAD,2024-04-21 22:04:20,15.08851996,0.0001449,53.2175,297.1476,88.3057,271.8101,7.3838e-05,8.88e-06,0.0,0 STARLINK-4295,1 52996U 22076L   24112.91967650  .00000888  00000-0  73838-4 0  9998,2 52996  53.2175 297.1476 0001449  88.3057 271.8101 15.08851996 99168,6917.844,95.437,540.711,538.706,0.0
52996.0,STARLINK-4295,PAYLOAD,2024-04-22 18:44:22,15.08832035,0.000155,53.218,293.2869,97.6743,262.4425,-3.5997e-06,-3.45e-06,0.0,0 STARLINK-4295,1 52996U 22076L   24113.78081145 -.00000345  00000-0 -35997-5 0  9995,2 52996  53.2180 293.2869 0001550  97.6743 262.4425 15.08832035 99769,6917.905,95.438,540.842,538.697,0.0
52996.0,STARLINK-4295,PAYLOAD,2024-04-23 12:13:36,15.08841345,0.0001446,53.2175,290.0125,110.5015,249.6133,2.2233e-05,6.6e-07,0.0,0 STARLINK-4295,1 52996U 22076L   24114.50944861  .00000066  00000-0  22233-4 0  9995,2 52996  53.2175 290.0125 0001446 110.5015 249.6133 15.08841345 99402,6917.876,95.437,540.742,538.741,0.0
52996.0,STARLINK-4295,PAYLOAD,2024-04-23 18:35:08,15.0885206,0.0001281,53.2166,288.8226,89.931,270.1829,0.00019701,2.85e-05,0.0,0 STARLINK-4295,1 52996U 22076L   24114.77440253  .00002850  00000-0  19701-3 0  9998,2 52996  53.2166 288.8226 0001281  89.9310 270.1829 15.08852060 99916,6917.844,95.437,540.595,538.822,0.0
52996.0,STARLINK-4295,PAYLOAD,2024-04-24 12:04:23,15.08835958,0.0001251,53.2176,285.5536,97.1528,262.9606,0.00011505,1.543e-05,0.0,0 STARLINK-4295,1 52996U 22076L   24115.50305357  .00001543  00000-0  11505-3 0  9997,2 52996  53.2176 285.5536 0001251  97.1528 262.9606 15.08835958100028,6917.893,95.438,540.623,538.892,0.0
